{"type": "FeatureCollection", "features": [ {"type": "Feature", "properties": {"norad_id": 37331, "name": "COSMOS 2251 DEB", "group": "cosmos-2251-debris", "lat": 63.522799773555214, "lon": -140.70216247908047, "alt_km": 731.9797968056737, "timestamp": "2025-12-09T05:43:21.124286+00:00", "meta": {"OBJECT_NAME": "COSMOS 2251 DEB", "OBJECT_ID": "1993-036BKX", "EPOCH": "2025-12-08T12:28:40.679328", "MEAN_MOTION": 14.35004102, "ECCENTRICITY": 0.0054894, "INCLINATION": 74.0752, "RA_OF_ASC_NODE": 75.5859, "ARG_OF_PERICENTER": 91.1646, "MEAN_ANOMALY": 269.5796, "EPHEMERIS_TYPE": 0, "CLASSIFICATION_TYPE": "U", "NORAD_CAT_ID": 37331, "ELEMENT_SET_NO": 999, "REV_AT_EPOCH": 84699, "BSTAR": 0.00094274204, "MEAN_MOTION_DOT": 2.707e-05, "MEAN_MOTION_DDOT": 0}, "tle": {"line1": "1 37331U 93036BKX 25342.51991527  .00002707  00000+0  94274-3 0  9997", "line2": "2 37331  74.0752  75.5859 0054894  91.1646 269.5796 14.35004102846990"}}, "geometry": {"type": "Point", "coordinates": [-140.70216247908047, 63.522799773555214]}}, {"type": "Feature", "properties": {"norad_id": 37336, "name": "COSMOS 2251 DEB", "group": "cosmos-2251-debris", "lat": 56.05054358220571, "lon": 132.4594006737656, "alt_km": 767.5534365188842, "timestamp": "2025-12-09T05:43:21.124296+00:00", "meta": {"OBJECT_NAME": "COSMOS 2251 DEB", "OBJECT_ID": "1993-036BLC", "EPOCH": "2025-12-01T07:48:14.136768", "MEAN_MOTION": 14.32750931, "ECCENTRICITY": 0.00286304, "INCLINATION": 74.0414, "RA_OF_ASC_NODE": 352.0528, "ARG_OF_PERICENTER": 73.4193, "MEAN_ANOMALY": 287.0099, "EPHEMERIS_TYPE": 0, "CLASSIFICATION_TYPE": "U", "NORAD_CAT_ID": 37336, "ELEMENT_SET_NO": 999, "REV_AT_EPOCH": 64956, "BSTAR": 8.422431e-05, "MEAN_MOTION_DOT": 2.05e-06, "MEAN_MOTION_DDOT": 0}, "tle": {"line1": "1 37336U 93036BLC 25335.32516362  .00000205  00000+0  84224-4 0  9999", "line2": "2 37336  74.0414 352.0528 0028630  73.4193 287.0099 14.32750931649565"}}, "geometry": {"type": "Point", "coordinates": [132.4594006737656, 56.05054358220571]}}, {"type": "Feature", "properties": {"norad_id": 37340, "name": "COSMOS 2251 DEB", "group": "cosmos-2251-debris", "lat": -66.42205101069032, "lon": -117.42464162227579, "alt_km": 775.987571879823, "timestamp": "2025-12-09T05:43:21.124308+00:00", "meta": {"OBJECT_NAME": "COSMOS 2251 DEB", "OBJECT_ID": "1993-036BLG", "EPOCH": "2025-12-05T05:08:42.934848", "MEAN_MOTION": 14.36908075, "ECCENTRICITY": 0.00174259, "INCLINATION": 74.0249, "RA_OF_ASC_NODE": 290.9993, "ARG_OF_PERICENTER": 27.9023, "MEAN_ANOMALY": 332.3061, "EPHEMERIS_TYPE": 0, "CLASSIFICATION_TYPE": "U", "NORAD_CAT_ID": 37340, "ELEMENT_SET_NO": 999, "REV_AT_EPOCH": 83959, "BSTAR": 0.00037521661, "MEAN_MOTION_DOT": 1.086e-05, "MEAN_MOTION_DDOT": 0}, "tle": {"line1": "1 37340U 93036BLG 25339.21438582  .00001086  00000+0  37522-3 0  9999", "line2": "2 37340  74.0249 290.9993 0017425  27.9023 332.3061 14.36908075839593"}}, "geometry": {"type": "Point", "coordinates": [-117.42464162227579, -66.42205101069032]}}, {"type": "Feature", "properties": {"norad_id": 37483, "name": "COSMOS 2251 DEB", "group": "cosmos-2251-debris", "lat": -41.762425418063316, "lon": 134.99498393759626, "alt_km": 702.7410537915694, "timestamp": "2025-12-09T05:43:21.124318+00:00", "meta": {"OBJECT_NAME": "COSMOS 2251 DEB", "OBJECT_ID": "1993-036BLL", "EPOCH": "2025-12-08T18:16:45.435936", "MEAN_MOTION": 14.43548369, "ECCENTRICITY": 0.009292, "INCLINATION": 73.9726, "RA_OF_ASC_NODE": 150.7569, "ARG_OF_PERICENTER": 358.1529, "MEAN_ANOMALY": 1.927, "EPHEMERIS_TYPE": 0, "CLASSIFICATION_TYPE": "U", "NORAD_CAT_ID": 37483, "ELEMENT_SET_NO": 999, "REV_AT_EPOCH": 65222, "BSTAR": 0.00038672, "MEAN_MOTION_DOT": 1.351e-05, "MEAN_MOTION_DDOT": 0}, "tle": {"line1": "1 37483U 93036BLL 25342.76163699  .00001351  00000+0  38672-3 0  9997", "line2": "2 37483  73.9726 150.7569 0092920 358.1529   1.9270 14.43548369652222"}}, "geometry": {"type": "Point", "coordinates": [134.99498393759626, -41.762425418063316]}}, {"type": "Feature", "properties": {"norad_id": 37484, "name": "COSMOS 2251 DEB", "group": "cosmos-2251-debris", "lat": -45.52790136666103, "lon": 52.21155257881875, "alt_km": 732.5813933543777, "timestamp": "2025-12-09T05:43:21.124328+00:00", "meta": {"OBJECT_NAME": "COSMOS 2251 DEB", "OBJECT_ID": "1993-036BLM", "EPOCH": "2025-12-06T08:56:33.254304", "MEAN_MOTION": 14.41742642, "ECCENTRICITY": 0.00400909, "INCLINATION": 73.8227, "RA_OF_ASC_NODE": 220.3904, "ARG_OF_PERICENTER": 256.1563, "MEAN_ANOMALY": 223.2643, "EPHEMERIS_TYPE": 0, "CLASSIFICATION_TYPE": "U", "NORAD_CAT_ID": 37484, "ELEMENT_SET_NO": 999, "REV_AT_EPOCH": 65287, "BSTAR": 0.0013292575, "MEAN_MOTION_DOT": 4.354e-05, "MEAN_MOTION_DDOT": 0}, "tle": {"line1": "1 37484U 93036BLM 25340.37260711  .00004354  00000+0  13293-2 0  9993", "line2": "2 37484  73.8227 220.3904 0040090 256.1563 223.2643 14.41742642652873"}}, "geometry": {"type": "Point", "coordinates": [52.21155257881875, -45.52790136666103]}}, {"type": "Feature", "properties": {"norad_id": 37486, "name": "COSMOS 2251 DEB", "group": "cosmos-2251-debris", "lat": 49.61854791616291, "lon": -79.20736384160779, "alt_km": 964.1564757124534, "timestamp": "2025-12-09T05:43:21.124339+00:00", "meta": {"OBJECT_NAME": "COSMOS 2251 DEB", "OBJECT_ID": "1993-036BLP", "EPOCH": "2025-12-08T15:36:14.085792", "MEAN_MOTION": 14.13268533, "ECCENTRICITY": 0.0229186, "INCLINATION": 73.6904, "RA_OF_ASC_NODE": 121.9918, "ARG_OF_PERICENTER": 350.7921, "MEAN_ANOMALY": 22.951, "EPHEMERIS_TYPE": 0, "CLASSIFICATION_TYPE": "U", "NORAD_CAT_ID": 37486, "ELEMENT_SET_NO": 999, "REV_AT_EPOCH": 63312, "BSTAR": 0.0028521, "MEAN_MOTION_DOT": 6.844e-05, "MEAN_MOTION_DDOT": 0}, "tle": {"line1": "1 37486U 93036BLP 25342.65016303  .00006844  00000+0  28521-2 0  9990", "line2": "2 37486  73.6904 121.9918 0229186 350.7921  22.9510 14.13268533633125"}}, "geometry": {"type": "Point", "coordinates": [-79.20736384160779, 49.61854791616291]}}, {"type": "Feature", "properties": {"norad_id": 37487, "name": "COSMOS 2251 DEB", "group": "cosmos-2251-debris", "lat": 73.72740788199185, "lon": -79.31455624684034, "alt_km": 607.9991915463752, "timestamp": "2025-12-09T05:43:21.124349+00:00", "meta": {"OBJECT_NAME": "COSMOS 2251 DEB", "OBJECT_ID": "1993-036BLQ", "EPOCH": "2025-12-08T08:15:02.962656", "MEAN_MOTION": 14.80724643, "ECCENTRICITY": 0.00253468, "INCLINATION": 73.9018, "RA_OF_ASC_NODE": 200.8288, "ARG_OF_PERICENTER": 39.8809, "MEAN_ANOMALY": 320.4223, "EPHEMERIS_TYPE": 0, "CLASSIFICATION_TYPE": "U", "NORAD_CAT_ID": 37487, "ELEMENT_SET_NO": 999, "REV_AT_EPOCH": 81180, "BSTAR": 0.0030271711, "MEAN_MOTION_DOT": 0.00023476, "MEAN_MOTION_DDOT": 0}, "tle": {"line1": "1 37487U 93036BLQ 25342.34378429  .00023476  00000+0  30272-2 0  9993", "line2": "2 37487  73.9018 200.8288 0025346  39.8809 320.4223 14.80724643811807"}}, "geometry": {"type": "Point", "coordinates": [-79.31455624684034, 73.72740788199185]}}, {"type": "Feature", "properties": {"norad_id": 37491, "name": "COSMOS 2251 DEB", "group": "cosmos-2251-debris", "lat": 72.44730113468944, "lon": 34.083966828055, "alt_km": 1206.7407455015837, "timestamp": "2025-12-09T05:43:21.124360+00:00", "meta": {"OBJECT_NAME": "COSMOS 2251 DEB", "OBJECT_ID": "1993-036BLU", "EPOCH": "2025-12-08T13:31:18.637824", "MEAN_MOTION": 13.75270831, "ECCENTRICITY": 0.0317693, "INCLINATION": 73.9064, "RA_OF_ASC_NODE": 281.0937, "ARG_OF_PERICENTER": 274.9147, "MEAN_ANOMALY": 81.5777, "EPHEMERIS_TYPE": 0, "CLASSIFICATION_TYPE": "U", "NORAD_CAT_ID": 37491, "ELEMENT_SET_NO": 999, "REV_AT_EPOCH": 55689, "BSTAR": 0.0022883, "MEAN_MOTION_DOT": 3.145e-05, "MEAN_MOTION_DDOT": 0}, "tle": {"line1": "1 37491U 93036BLU 25342.56341016  .00003145  00000+0  22883-2 0  9994", "line2": "2 37491  73.9064 281.0937 0317693 274.9147  81.5777 13.75270831556893"}}, "geometry": {"type": "Point", "coordinates": [34.083966828055, 72.44730113468944]}}, {"type": "Feature", "properties": {"norad_id": 37498, "name": "COSMOS 2251 DEB", "group": "cosmos-2251-debris", "lat": -41.63657218504132, "lon": 25.258220853735022, "alt_km": 707.9173846347167, "timestamp": "2025-12-09T05:43:21.124370+00:00", "meta": {"OBJECT_NAME": "COSMOS 2251 DEB", "OBJECT_ID": "1993-036BMB", "EPOCH": "2025-12-02T07:38:53.705760", "MEAN_MOTION": 14.54689112, "ECCENTRICITY": 0.00134342, "INCLINATION": 74.038, "RA_OF_ASC_NODE": 203.6034, "ARG_OF_PERICENTER": 264.7495, "MEAN_ANOMALY": 95.2135, "EPHEMERIS_TYPE": 0, "CLASSIFICATION_TYPE": "U", "NORAD_CAT_ID": 37498, "ELEMENT_SET_NO": 999, "REV_AT_EPOCH": 65203, "BSTAR": 0.00080152077, "MEAN_MOTION_DOT": 3.406e-05, "MEAN_MOTION_DDOT": 0}, "tle": {"line1": "1 37498U 93036BMB 25336.31867715  .00003406  00000+0  80152-3 0  9990", "line2": "2 37498  74.0380 203.6034 0013434 264.7495  95.2135 14.54689112652037"}}, "geometry": {"type": "Point", "coordinates": [25.258220853735022, -41.63657218504132]}}, {"type": "Feature", "properties": {"norad_id": 37499, "name": "COSMOS 2251 DEB", "group": "cosmos-2251-debris", "lat": -26.11754407145702, "lon": -39.46614953639597, "alt_km": 776.8769931214129, "timestamp": "2025-12-09T05:43:21.124381+00:00", "meta": {"OBJECT_NAME": "COSMOS 2251 DEB", "OBJECT_ID": "1993-036BMC", "EPOCH": "2025-12-08T16:27:27.393408", "MEAN_MOTION": 14.34336866, "ECCENTRICITY": 0.0026781, "INCLINATION": 74.0376, "RA_OF_ASC_NODE": 329.612, "ARG_OF_PERICENTER": 46.8516, "MEAN_ANOMALY": 313.4869, "EPHEMERIS_TYPE": 0, "CLASSIFICATION_TYPE": "U", "NORAD_CAT_ID": 37499, "ELEMENT_SET_NO": 999, "REV_AT_EPOCH": 85091, "BSTAR": 0.00031708, "MEAN_MOTION_DOT": 8.69e-06, "MEAN_MOTION_DDOT": 0}, "tle": {"line1": "1 37499U 93036BMC 25342.68573372  .00000869  00000+0  31708-3 0  9994", "line2": "2 37499  74.0376 329.6120 0026781  46.8516 313.4869 14.34336866850919"}}, "geometry": {"type": "Point", "coordinates": [-39.46614953639597, -26.11754407145702]}}]}